IRIDIUM 63              
1 25286U 98021B   25195.62365184  .00000247  00000+0  77376-4 0  9996
2 25286  86.3953  70.6200 0002122  91.0707 269.0734 14.36560914427783
IRIDIUM 71              
1 25320U 98026B   25195.62479834  .00000245  00000+0  69701-4 0  9999
2 25320  86.3950  78.5135 0003030  41.5259 318.6171 14.41174999427544
IRIDIUM 73              
1 25344U 98032C   25195.63298426  .00000341  00000+0  79710-4 0  9997
2 25344  86.4395  35.1551 0001569  92.2073 267.9312 14.51736463434549
